{
  "type": "FeatureCollection",
  "features": [
    {
      "type": "Feature",
      "properties": {
        "norad_id": 43260,
        "name": "GAOFEN-1 03",
        "group": "resource",
        "lat": 60.63164595196559,
        "lon": 25.283648555075914,
        "alt_km": 634.4790420568106,
        "timestamp": "2025-12-08T05:48:08.705233+00:00",
        "meta_object_name": "GAOFEN-1 03",
        "meta_object_id": "2018-031B",
        "meta_epoch": "2025-12-07T23:01:04.920672",
        "meta_mean_motion": 14.76420894,
        "meta_eccentricity": 0.00023159,
        "meta_inclination": 98.0805,
        "meta_ra_of_asc_node": 39.6239,
        "meta_arg_of_pericenter": 342.3536,
        "meta_mean_anomaly": 17.7593,
        "meta_ephemeris_type": 0,
        "meta_classification_type": "U",
        "meta_norad_cat_id": 43260,
        "meta_element_set_no": 999,
        "meta_rev_at_epoch": 41447,
        "meta_bstar": 0.00023471499,
        "meta_mean_motion_dot": 1.58e-05,
        "meta_mean_motion_ddot": 0,
        "tle_line1": "1 43260U 18031B   25341.95908473  .00001580  00000+0  23471-3 0  9991",
        "tle_line2": "2 43260  98.0805  39.6239 0002315 342.3536  17.7593 14.76420894414473"
      },
      "geometry": {
        "type": "Point",
        "coordinates": [
          25.283648555075914,
          60.63164595196559
        ]
      }
    },
    {
      "type": "Feature",
      "properties": {
        "norad_id": 43262,
        "name": "GAOFEN-1 04",
        "group": "resource",
        "lat": -10.882605444327963,
        "lon": -141.48991577330148,
        "alt_km": 645.4637511971468,
        "timestamp": "2025-12-08T05:48:08.705242+00:00",
        "meta_object_name": "GAOFEN-1 04",
        "meta_object_id": "2018-031D",
        "meta_epoch": "2025-12-07T22:26:04.555680",
        "meta_mean_motion": 14.76433906,
        "meta_eccentricity": 0.00011751,
        "meta_inclination": 98.0815,
        "meta_ra_of_asc_node": 39.7683,
        "meta_arg_of_pericenter": 59.8977,
        "meta_mean_anomaly": 300.2349,
        "meta_ephemeris_type": 0,
        "meta_classification_type": "U",
        "meta_norad_cat_id": 43262,
        "meta_element_set_no": 999,
        "meta_rev_at_epoch": 41446,
        "meta_bstar": 0.00023107096,
        "meta_mean_motion_dot": 1.555e-05,
        "meta_mean_motion_ddot": 0,
        "tle_line1": "1 43262U 18031D   25341.93477495  .00001555  00000+0  23107-3 0  9994",
        "tle_line2": "2 43262  98.0815  39.7683 0001175  59.8977 300.2349 14.76433906414468"
      },
      "geometry": {
        "type": "Point",
        "coordinates": [
          -141.48991577330148,
          -10.882605444327963
        ]
      }
    },
    {
      "type": "Feature",
      "properties": {
        "norad_id": 43437,
        "name": "SENTINEL-3B",
        "group": "resource",
        "lat": 77.55331330081025,
        "lon": 4.0326334339501555,
        "alt_km": 794.3633517619446,
        "timestamp": "2025-12-08T05:48:08.705252+00:00",
        "meta_object_name": "SENTINEL-3B",
        "meta_object_id": "2018-039A",
        "meta_epoch": "2025-12-07T22:41:30.426720",
        "meta_mean_motion": 14.26739936,
        "meta_eccentricity": 0.00015247,
        "meta_inclination": 98.6271,
        "meta_ra_of_asc_node": 47.1992,
        "meta_arg_of_pericenter": 107.6411,
        "meta_mean_anomaly": 252.4936,
        "meta_ephemeris_type": 0,
        "meta_classification_type": "U",
        "meta_norad_cat_id": 43437,
        "meta_element_set_no": 999,
        "meta_rev_at_epoch": 39685,
        "meta_bstar": 0.00012455305,
        "meta_mean_motion_dot": 2.58e-06,
        "meta_mean_motion_ddot": 0,
        "tle_line1": "1 43437U 18039A   25341.94549105  .00000258  00000+0  12455-3 0  9998",
        "tle_line2": "2 43437  98.6271  47.1992 0001524 107.6411 252.4936 14.26739936396852"
      },
      "geometry": {
        "type": "Point",
        "coordinates": [
          4.0326334339501555,
          77.55331330081025
        ]
      }
    },
    {
      "type": "Feature",
      "properties": {
        "norad_id": 43461,
        "name": "GAOFEN-5 01",
        "group": "resource",
        "lat": -64.45825653176337,
        "lon": 107.04702640231783,
        "alt_km": 699.3994748564728,
        "timestamp": "2025-12-08T05:48:08.705262+00:00",
        "meta_object_name": "GAOFEN-5 01",
        "meta_object_id": "2018-043A",
        "meta_epoch": "2025-12-07T22:06:10.768608",
        "meta_mean_motion": 14.60401449,
        "meta_eccentricity": 0.00012884,
        "meta_inclination": 98.4318,
        "meta_ra_of_asc_node": 304.8042,
        "meta_arg_of_pericenter": 357.5447,
        "meta_mean_anomaly": 2.5746,
        "meta_ephemeris_type": 0,
        "meta_classification_type": "U",
        "meta_norad_cat_id": 43461,
        "meta_element_set_no": 999,
        "meta_rev_at_epoch": 40377,
        "meta_bstar": 0.00018980945,
        "meta_mean_motion_dot": 8.7e-06,
        "meta_mean_motion_ddot": 0,
        "tle_line1": "1 43461U 18043A   25341.92095797  .00000870  00000+0  18981-3 0  9991",
        "tle_line2": "2 43461  98.4318 304.8042 0001288 357.5447   2.5746 14.60401449403776"
      },
      "geometry": {
        "type": "Point",
        "coordinates": [
          107.04702640231783,
          -64.45825653176337
        ]
      }
    },
    {
      "type": "Feature",
      "properties": {
        "norad_id": 43484,
        "name": "GAOFEN-6",
        "group": "resource",
        "lat": -19.820983887781065,
        "lon": 49.492974084718924,
        "alt_km": 646.529039321952,
        "timestamp": "2025-12-08T05:48:08.705272+00:00",
        "meta_object_name": "GAOFEN-6",
        "meta_object_id": "2018-048A",
        "meta_epoch": "2025-12-07T23:23:14.111232",
        "meta_mean_motion": 14.76552433,
        "meta_eccentricity": 0.00132885,
        "meta_inclination": 97.8038,
        "meta_ra_of_asc_node": 46.4013,
        "meta_arg_of_pericenter": 77.8595,
        "meta_mean_anomaly": 282.4103,
        "meta_ephemeris_type": 0,
        "meta_classification_type": "U",
        "meta_norad_cat_id": 43484,
        "meta_element_set_no": 999,
        "meta_rev_at_epoch": 40517,
        "meta_bstar": 0.00020659615,
        "meta_mean_motion_dot": 1.393e-05,
        "meta_mean_motion_ddot": 0,
        "tle_line1": "1 43484U 18048A   25341.97446888  .00001393  00000+0  20660-3 0  9995",
        "tle_line2": "2 43484  97.8038  46.4013 0013288  77.8595 282.4103 14.76552433405178"
      },
      "geometry": {
        "type": "Point",
        "coordinates": [
          49.492974084718924,
          -19.820983887781065
        ]
      }
    },
    {
      "type": "Feature",
      "properties": {
        "norad_id": 43585,
        "name": "GAOFEN-11 01",
        "group": "resource",
        "lat": 53.23351037065398,
        "lon": 35.53355499033713,
        "alt_km": 414.0775465565821,
        "timestamp": "2025-12-08T05:48:08.705283+00:00",
        "meta_object_name": "GAOFEN-11 01",
        "meta_object_id": "2018-063A",
        "meta_epoch": "2025-12-07T23:22:09.808896",
        "meta_mean_motion": 15.49020478,
        "meta_eccentricity": 0.0004629,
        "meta_inclination": 97.1563,
        "meta_ra_of_asc_node": 44.9485,
        "meta_arg_of_pericenter": 334.9855,
        "meta_mean_anomaly": 25.1172,
        "meta_ephemeris_type": 0,
        "meta_classification_type": "U",
        "meta_norad_cat_id": 43585,
        "meta_element_set_no": 999,
        "meta_rev_at_epoch": 41068,
        "meta_bstar": 0.00034823976,
        "meta_mean_motion_dot": 0.00018792,
        "meta_mean_motion_ddot": 0,
        "tle_line1": "1 43585U 18063A   25341.97372464  .00018792  00000+0  34824-3 0  9990",
        "tle_line2": "2 43585  97.1563  44.9485 0004629 334.9855  25.1172 15.49020478410687"
      },
      "geometry": {
        "type": "Point",
        "coordinates": [
          35.53355499033713,
          53.23351037065398
        ]
      }
    },
    {
      "type": "Feature",
      "properties": {
        "norad_id": 43613,
        "name": "ICESAT-2",
        "group": "resource",
        "lat": 51.911759289073295,
        "lon": 62.08442078394602,
        "alt_km": 475.2908291007143,
        "timestamp": "2025-12-08T05:48:08.705293+00:00",
        "meta_object_name": "ICESAT-2",
        "meta_object_id": "2018-070A",
        "meta_epoch": "2025-12-07T21:23:11.541984",
        "meta_mean_motion": 15.28215161,
        "meta_eccentricity": 0.00019774,
        "meta_inclination": 92.0046,
        "meta_ra_of_asc_node": 239.4285,
        "meta_arg_of_pericenter": 161.2885,
        "meta_mean_anomaly": 198.8438,
        "meta_ephemeris_type": 0,
        "meta_classification_type": "U",
        "meta_norad_cat_id": 43613,
        "meta_element_set_no": 999,
        "meta_rev_at_epoch": 40324,
        "meta_bstar": 0.00057423926,
        "meta_mean_motion_dot": 0.00015794,
        "meta_mean_motion_ddot": 0,
        "tle_line1": "1 43613U 18070A   25341.89110581  .00015794  00000+0  57424-3 0  9991",
        "tle_line2": "2 43613  92.0046 239.4285 0001977 161.2885 198.8438 15.28215161403244"
      },
      "geometry": {
        "type": "Point",
        "coordinates": [
          62.08442078394602,
          51.911759289073295
        ]
      }
    }
  ]
}